{"type": "FeatureCollection", "features": [ {"type": "Feature", "properties": {"norad_id": 41836, "name": "HIMAWARI-9", "group": "weather", "lat": -0.04277092814053204, "lon": -70.05795928476061, "alt_km": 35780.77494134632, "timestamp": "2025-12-21T03:56:50.501234+00:00", "meta": {"OBJECT_NAME": "HIMAWARI-9", "OBJECT_ID": "2016-064A", "EPOCH": "2025-12-20T19:34:38.799840", "MEAN_MOTION": 1.00274017, "ECCENTRICITY": 0.0001447, "INCLINATION": 0.0173, "RA_OF_ASC_NODE": 6.6921, "ARG_OF_PERICENTER": 322.5388, "MEAN_ANOMALY": 194.8351, "EPHEMERIS_TYPE": 0, "CLASSIFICATION_TYPE": "U", "NORAD_CAT_ID": 41836, "ELEMENT_SET_NO": 999, "REV_AT_EPOCH": 3342, "BSTAR": 0, "MEAN_MOTION_DOT": 0, "MEAN_MOTION_DDOT": 0}, "tle": {"line1": "1 41836U 16064A   25354.81572685  .00000000  00000+0  00000+0 0  9998", "line2": "2 41836   0.0173   6.6921 0001447 322.5388 194.8351  1.00274017 33421"}}, "geometry": {"type": "Point", "coordinates": [-70.05795928476061, -0.04277092814053204]}}, {"type": "Feature", "properties": {"norad_id": 41866, "name": "GOES 16", "group": "weather", "lat": -0.04030556575683107, "lon": 44.544338131289564, "alt_km": 35795.62512022119, "timestamp": "2025-12-21T03:56:50.501245+00:00", "meta": {"OBJECT_NAME": "GOES 16", "OBJECT_ID": "2016-071A", "EPOCH": "2025-12-20T16:09:21.798144", "MEAN_MOTION": 1.00272116, "ECCENTRICITY": 0.0003023, "INCLINATION": 0.075, "RA_OF_ASC_NODE": 102.2495, "ARG_OF_PERICENTER": 163.5327, "MEAN_ANOMALY": 321.3933, "EPHEMERIS_TYPE": 0, "CLASSIFICATION_TYPE": "U", "NORAD_CAT_ID": 41866, "ELEMENT_SET_NO": 999, "REV_AT_EPOCH": 3331, "BSTAR": 0, "MEAN_MOTION_DOT": -6.8e-07, "MEAN_MOTION_DDOT": 0}, "tle": {"line1": "1 41866U 16071A   25354.67316896 -.00000068  00000+0  00000+0 0  9998", "line2": "2 41866   0.0750 102.2495 0003023 163.5327 321.3933  1.00272116 33311"}}, "geometry": {"type": "Point", "coordinates": [44.544338131289564, -0.04030556575683107]}}, {"type": "Feature", "properties": {"norad_id": 41882, "name": "FENGYUN 4A", "group": "weather", "lat": -0.3723176198339794, "lon": -87.05937574126969, "alt_km": 35774.963536603784, "timestamp": "2025-12-21T03:56:50.501256+00:00", "meta": {"OBJECT_NAME": "FENGYUN 4A", "OBJECT_ID": "2016-077A", "EPOCH": "2025-12-19T13:51:06.687072", "MEAN_MOTION": 1.00266581, "ECCENTRICITY": 0.0004506, "INCLINATION": 1.866, "RA_OF_ASC_NODE": 82.3247, "ARG_OF_PERICENTER": 142.8816, "MEAN_ANOMALY": 194.7423, "EPHEMERIS_TYPE": 0, "CLASSIFICATION_TYPE": "U", "NORAD_CAT_ID": 41882, "ELEMENT_SET_NO": 999, "REV_AT_EPOCH": 3312, "BSTAR": 0, "MEAN_MOTION_DOT": -3.34e-06, "MEAN_MOTION_DDOT": 0}, "tle": {"line1": "1 41882U 16077A   25353.57716073 -.00000334  00000+0  00000+0 0  9997", "line2": "2 41882   1.8660  82.3247 0004506 142.8816 194.7423  1.00266581 33125"}}, "geometry": {"type": "Point", "coordinates": [-87.05937574126969, -0.3723176198339794]}}, {"type": "Feature", "properties": {"norad_id": 41884, "name": "CYGFM05", "group": "weather", "lat": -23.651955885937262, "lon": -149.09487275650065, "alt_km": 418.0311303629687, "timestamp": "2025-12-21T03:56:50.501266+00:00", "meta": {"OBJECT_NAME": "CYGFM05", "OBJECT_ID": "2016-078A", "EPOCH": "2025-12-20T09:57:19.872576", "MEAN_MOTION": 15.47904275, "ECCENTRICITY": 0.00107959, "INCLINATION": 34.9606, "RA_OF_ASC_NODE": 356.9859, "ARG_OF_PERICENTER": 250.6925, "MEAN_ANOMALY": 109.2629, "EPHEMERIS_TYPE": 0, "CLASSIFICATION_TYPE": "U", "NORAD_CAT_ID": 41884, "ELEMENT_SET_NO": 999, "REV_AT_EPOCH": 50095, "BSTAR": 0.00028174579, "MEAN_MOTION_DOT": 0.00015144, "MEAN_MOTION_DDOT": 0}, "tle": {"line1": "1 41884U 16078A   25354.41481334  .00015144  00000+0  28175-3 0  9994", "line2": "2 41884  34.9606 356.9859 0010795 250.6925 109.2629 15.47904275500953"}}, "geometry": {"type": "Point", "coordinates": [-149.09487275650065, -23.651955885937262]}}, {"type": "Feature", "properties": {"norad_id": 41885, "name": "CYGFM04", "group": "weather", "lat": -4.225132112983994, "lon": 152.69370848201893, "alt_km": 414.73174102993653, "timestamp": "2025-12-21T03:56:50.501276+00:00", "meta": {"OBJECT_NAME": "CYGFM04", "OBJECT_ID": "2016-078B", "EPOCH": "2025-12-20T08:36:05.783328", "MEAN_MOTION": 15.50664937, "ECCENTRICITY": 0.00097019, "INCLINATION": 34.9357, "RA_OF_ASC_NODE": 331.9095, "ARG_OF_PERICENTER": 275.107, "MEAN_ANOMALY": 84.8545, "EPHEMERIS_TYPE": 0, "CLASSIFICATION_TYPE": "U", "NORAD_CAT_ID": 41885, "ELEMENT_SET_NO": 999, "REV_AT_EPOCH": 50112, "BSTAR": 0.00030127254, "MEAN_MOTION_DOT": 0.0001786, "MEAN_MOTION_DDOT": 0}, "tle": {"line1": "1 41885U 16078B   25354.35840027  .00017860  00000+0  30127-3 0  9993", "line2": "2 41885  34.9357 331.9095 0009701 275.1070  84.8545 15.50664937501127"}}, "geometry": {"type": "Point", "coordinates": [152.69370848201893, -4.225132112983994]}}, {"type": "Feature", "properties": {"norad_id": 41886, "name": "CYGFM02", "group": "weather", "lat": -30.604968852514336, "lon": -157.26580861289125, "alt_km": 406.582600625944, "timestamp": "2025-12-21T03:56:50.501286+00:00", "meta": {"OBJECT_NAME": "CYGFM02", "OBJECT_ID": "2016-078C", "EPOCH": "2025-12-20T08:22:53.365728", "MEAN_MOTION": 15.52066402, "ECCENTRICITY": 0.00113856, "INCLINATION": 34.9446, "RA_OF_ASC_NODE": 330.1965, "ARG_OF_PERICENTER": 275.5269, "MEAN_ANOMALY": 84.4156, "EPHEMERIS_TYPE": 0, "CLASSIFICATION_TYPE": "U", "NORAD_CAT_ID": 41886, "ELEMENT_SET_NO": 999, "REV_AT_EPOCH": 50125, "BSTAR": 0.00030781322, "MEAN_MOTION_DOT": 0.00019209, "MEAN_MOTION_DDOT": 0}, "tle": {"line1": "1 41886U 16078C   25354.34922877  .00019209  00000+0  30781-3 0  9992", "line2": "2 41886  34.9446 330.1965 0011385 275.5269  84.4156 15.52066402501252"}}, "geometry": {"type": "Point", "coordinates": [-157.26580861289125, -30.604968852514336]}}, {"type": "Feature", "properties": {"norad_id": 41887, "name": "CYGFM01", "group": "weather", "lat": -33.28013774846386, "lon": -75.6822673531078, "alt_km": 417.37576694359905, "timestamp": "2025-12-21T03:56:50.501295+00:00", "meta": {"OBJECT_NAME": "CYGFM01", "OBJECT_ID": "2016-078D", "EPOCH": "2025-12-20T17:25:55.765632", "MEAN_MOTION": 15.48500572, "ECCENTRICITY": 0.0010488, "INCLINATION": 34.9437, "RA_OF_ASC_NODE": 357.2428, "ARG_OF_PERICENTER": 245.7557, "MEAN_ANOMALY": 114.2069, "EPHEMERIS_TYPE": 0, "CLASSIFICATION_TYPE": "U", "NORAD_CAT_ID": 41887, "ELEMENT_SET_NO": 999, "REV_AT_EPOCH": 50094, "BSTAR": 0.00026989, "MEAN_MOTION_DOT": 0.0001481, "MEAN_MOTION_DDOT": 0}, "tle": {"line1": "1 41887U 16078D   25354.72633988  .00014810  00000+0  26989-3 0  9995", "line2": "2 41887  34.9437 357.2428 0010488 245.7557 114.2069 15.48500572500945"}}, "geometry": {"type": "Point", "coordinates": [-75.6822673531078, -33.28013774846386]}}, {"type": "Feature", "properties": {"norad_id": 41888, "name": "CYGFM08", "group": "weather", "lat": 6.836219114244677, "lon": -12.845290421903249, "alt_km": 416.7242655688178, "timestamp": "2025-12-21T03:56:50.501305+00:00", "meta": {"OBJECT_NAME": "CYGFM08", "OBJECT_ID": "2016-078E", "EPOCH": "2025-12-20T09:20:35.850048", "MEAN_MOTION": 15.49716188, "ECCENTRICITY": 0.00119728, "INCLINATION": 34.9468, "RA_OF_ASC_NODE": 342.3498, "ARG_OF_PERICENTER": 265.5444, "MEAN_ANOMALY": 94.391, "EPHEMERIS_TYPE": 0, "CLASSIFICATION_TYPE": "U", "NORAD_CAT_ID": 41888, "ELEMENT_SET_NO": 999, "REV_AT_EPOCH": 50112, "BSTAR": 0.00029221283, "MEAN_MOTION_DOT": 0.00016759, "MEAN_MOTION_DDOT": 0}, "tle": {"line1": "1 41888U 16078E   25354.38930382  .00016759  00000+0  29221-3 0  9992", "line2": "2 41888  34.9468 342.3498 0011972 265.5444  94.3910 15.49716188501123"}}, "geometry": {"type": "Point", "coordinates": [-12.845290421903249, 6.836219114244677]}}, {"type": "Feature", "properties": {"norad_id": 41890, "name": "CYGFM07", "group": "weather", "lat": 9.932483695235977, "lon": -19.27596568427208, "alt_km": 413.2079846510878, "timestamp": "2025-12-21T03:56:50.501314+00:00", "meta": {"OBJECT_NAME": "CYGFM07", "OBJECT_ID": "2016-078G", "EPOCH": "2025-12-20T06:14:08.524032", "MEAN_MOTION": 15.50300971, "ECCENTRICITY": 0.0010083, "INCLINATION": 34.9485, "RA_OF_ASC_NODE": 332.1364, "ARG_OF_PERICENTER": 279.4388, "MEAN_ANOMALY": 80.5194, "EPHEMERIS_TYPE": 0, "CLASSIFICATION_TYPE": "U", "NORAD_CAT_ID": 41890, "ELEMENT_SET_NO": 999, "REV_AT_EPOCH": 50112, "BSTAR": 0.00029061, "MEAN_MOTION_DOT": 0.00017004, "MEAN_MOTION_DDOT": 0}, "tle": {"line1": "1 41890U 16078G   25354.25982088  .00017004  00000+0  29061-3 0  9997", "line2": "2 41890  34.9485 332.1364 0010083 279.4388  80.5194 15.50300971501129"}}, "geometry": {"type": "Point", "coordinates": [-19.27596568427208, 9.932483695235977]}}, {"type": "Feature", "properties": {"norad_id": 41891, "name": "CYGFM03", "group": "weather", "lat": -16.14935875817166, "lon": 172.62756239688525, "alt_km": 414.1824050204377, "timestamp": "2025-12-21T03:56:50.501324+00:00", "meta": {"OBJECT_NAME": "CYGFM03", "OBJECT_ID": "2016-078H", "EPOCH": "2025-12-20T05:24:41.758848", "MEAN_MOTION": 15.50196559, "ECCENTRICITY": 0.00096734, "INCLINATION": 34.9438, "RA_OF_ASC_NODE": 334.2852, "ARG_OF_PERICENTER": 266.9211, "MEAN_ANOMALY": 93.0404, "EPHEMERIS_TYPE": 0, "CLASSIFICATION_TYPE": "U", "NORAD_CAT_ID": 41891, "ELEMENT_SET_NO": 999, "REV_AT_EPOCH": 50109, "BSTAR": 0.00029188534, "MEAN_MOTION_DOT": 0.00017012, "MEAN_MOTION_DDOT": 0}, "tle": {"line1": "1 41891U 16078H   25354.22548332  .00017012  00000+0  29189-3 0  9995", "line2": "2 41891  34.9438 334.2852 0009673 266.9211  93.0404 15.50196559501096"}}, "geometry": {"type": "Point", "coordinates": [172.62756239688525, -16.14935875817166]}}]}